ORBCOMM FM33            
1 25983U 99065D   24294.85728385  .00004979  00000+0  16537-2 0  9995
2 25983  45.0290  55.7835 0009125 285.6517  74.3325 14.38652862301589
ORBCOMM FM36            
1 25984U 99065E   24294.85298525  .00004750  00000+0  16443-2 0  9997
2 25984  45.0372 144.0338 0003803 169.4093 190.6836 14.36688493299982
ORBCOMM FM35            
1 25985U 99065F   24294.67851404  .00003665  00000+0  12985-2 0  9990
2 25985  45.0377 148.1892 0002954 275.5823  84.4688 14.35962957300341
ORBCOMM FM34            
1 25986U 99065G   24294.85932732  .00003625  00000+0  12846-2 0  9997
2 25986  45.0368 147.8814 0003538 215.8760 144.1850 14.35982219300481
ORBCOMM FM38            
1 33060U 08031A   24294.60616020  .00009633  00000+0  13116-2 0  9990
2 33060  48.4418  15.3459 0004373  85.2275 274.9139 14.79146322879251
ORBCOMM FM41            
1 33061U 08031B   24294.64224035  .00009497  00000+0  13033-2 0  9992
2 33061  48.4453  22.1940 0003609  66.3544  76.0292 14.78827935878752
ORBCOMM FM29            
1 33062U 08031C   24294.63442512  .00010012  00000+0  13724-2 0  9996
2 33062  48.4404  30.2474 0005348  68.4885  68.1836 14.78819885878665
ORBCOMM FM39            
1 33063U 08031D   24294.76128819  .00009000  00000+0  12716-2 0  9997
2 33063  48.4414  51.4972 0006434  43.1700 316.9718 14.77631707878362
