<?xml version="1.0" encoding="UTF-8"?>
<ndm xmlns:xsi="http://www.w3.org/2001/XMLSchema-instance" xsi:noNamespaceSchemaLocation="https://sanaregistry.org/r/ndmxml_unqualified/ndmxml-2.0.0-master-2.0.xsd">
<omm id="CCSDS_OMM_VERS" version="2.0">
<header><CREATION_DATE/><ORIGINATOR/></header><body><segment><metadata><OBJECT_NAME>ORBCOMM FM33</OBJECT_NAME><OBJECT_ID>1999-065D</OBJECT_ID><CENTER_NAME>EARTH</CENTER_NAME><REF_FRAME>TEME</REF_FRAME><TIME_SYSTEM>UTC</TIME_SYSTEM><MEAN_ELEMENT_THEORY>SGP4</MEAN_ELEMENT_THEORY></metadata><data><meanElements><EPOCH>2024-10-20T20:34:29.324640</EPOCH><MEAN_MOTION>14.38652862</MEAN_MOTION><ECCENTRICITY>.0009125</ECCENTRICITY><INCLINATION>45.0290</INCLINATION><RA_OF_ASC_NODE>55.7835</RA_OF_ASC_NODE><ARG_OF_PERICENTER>285.6517</ARG_OF_PERICENTER><MEAN_ANOMALY>74.3325</MEAN_ANOMALY></meanElements><tleParameters><EPHEMERIS_TYPE>0</EPHEMERIS_TYPE><CLASSIFICATION_TYPE>U</CLASSIFICATION_TYPE><NORAD_CAT_ID>25983</NORAD_CAT_ID><ELEMENT_SET_NO>999</ELEMENT_SET_NO><REV_AT_EPOCH>30158</REV_AT_EPOCH><BSTAR>.16537E-2</BSTAR><MEAN_MOTION_DOT>.4979E-4</MEAN_MOTION_DOT><MEAN_MOTION_DDOT>0</MEAN_MOTION_DDOT></tleParameters></data></segment></body></omm>
<omm id="CCSDS_OMM_VERS" version="2.0">
<header><CREATION_DATE/><ORIGINATOR/></header><body><segment><metadata><OBJECT_NAME>ORBCOMM FM36</OBJECT_NAME><OBJECT_ID>1999-065E</OBJECT_ID><CENTER_NAME>EARTH</CENTER_NAME><REF_FRAME>TEME</REF_FRAME><TIME_SYSTEM>UTC</TIME_SYSTEM><MEAN_ELEMENT_THEORY>SGP4</MEAN_ELEMENT_THEORY></metadata><data><meanElements><EPOCH>2024-10-20T20:28:17.925600</EPOCH><MEAN_MOTION>14.36688493</MEAN_MOTION><ECCENTRICITY>.0003803</ECCENTRICITY><INCLINATION>45.0372</INCLINATION><RA_OF_ASC_NODE>144.0338</RA_OF_ASC_NODE><ARG_OF_PERICENTER>169.4093</ARG_OF_PERICENTER><MEAN_ANOMALY>190.6836</MEAN_ANOMALY></meanElements><tleParameters><EPHEMERIS_TYPE>0</EPHEMERIS_TYPE><CLASSIFICATION_TYPE>U</CLASSIFICATION_TYPE><NORAD_CAT_ID>25984</NORAD_CAT_ID><ELEMENT_SET_NO>999</ELEMENT_SET_NO><REV_AT_EPOCH>29998</REV_AT_EPOCH><BSTAR>.16443E-2</BSTAR><MEAN_MOTION_DOT>.475E-4</MEAN_MOTION_DOT><MEAN_MOTION_DDOT>0</MEAN_MOTION_DDOT></tleParameters></data></segment></body></omm>
<omm id="CCSDS_OMM_VERS" version="2.0">
<header><CREATION_DATE/><ORIGINATOR/></header><body><segment><metadata><OBJECT_NAME>ORBCOMM FM35</OBJECT_NAME><OBJECT_ID>1999-065F</OBJECT_ID><CENTER_NAME>EARTH</CENTER_NAME><REF_FRAME>TEME</REF_FRAME><TIME_SYSTEM>UTC</TIME_SYSTEM><MEAN_ELEMENT_THEORY>SGP4</MEAN_ELEMENT_THEORY></metadata><data><meanElements><EPOCH>2024-10-20T16:17:03.613056</EPOCH><MEAN_MOTION>14.35962957</MEAN_MOTION><ECCENTRICITY>.0002954</ECCENTRICITY><INCLINATION>45.0377</INCLINATION><RA_OF_ASC_NODE>148.1892</RA_OF_ASC_NODE><ARG_OF_PERICENTER>275.5823</ARG_OF_PERICENTER><MEAN_ANOMALY>84.4688</MEAN_ANOMALY></meanElements><tleParameters><EPHEMERIS_TYPE>0</EPHEMERIS_TYPE><CLASSIFICATION_TYPE>U</CLASSIFICATION_TYPE><NORAD_CAT_ID>25985</NORAD_CAT_ID><ELEMENT_SET_NO>999</ELEMENT_SET_NO><REV_AT_EPOCH>30034</REV_AT_EPOCH><BSTAR>.12985E-2</BSTAR><MEAN_MOTION_DOT>.3665E-4</MEAN_MOTION_DOT><MEAN_MOTION_DDOT>0</MEAN_MOTION_DDOT></tleParameters></data></segment></body></omm>
<omm id="CCSDS_OMM_VERS" version="2.0">
<header><CREATION_DATE/><ORIGINATOR/></header><body><segment><metadata><OBJECT_NAME>ORBCOMM FM34</OBJECT_NAME><OBJECT_ID>1999-065G</OBJECT_ID><CENTER_NAME>EARTH</CENTER_NAME><REF_FRAME>TEME</REF_FRAME><TIME_SYSTEM>UTC</TIME_SYSTEM><MEAN_ELEMENT_THEORY>SGP4</MEAN_ELEMENT_THEORY></metadata><data><meanElements><EPOCH>2024-10-20T20:37:25.880448</EPOCH><MEAN_MOTION>14.35982219</MEAN_MOTION><ECCENTRICITY>.0003538</ECCENTRICITY><INCLINATION>45.0368</INCLINATION><RA_OF_ASC_NODE>147.8814</RA_OF_ASC_NODE><ARG_OF_PERICENTER>215.8760</ARG_OF_PERICENTER><MEAN_ANOMALY>144.1850</MEAN_ANOMALY></meanElements><tleParameters><EPHEMERIS_TYPE>0</EPHEMERIS_TYPE><CLASSIFICATION_TYPE>U</CLASSIFICATION_TYPE><NORAD_CAT_ID>25986</NORAD_CAT_ID><ELEMENT_SET_NO>999</ELEMENT_SET_NO><REV_AT_EPOCH>30048</REV_AT_EPOCH><BSTAR>.12846E-2</BSTAR><MEAN_MOTION_DOT>.3625E-4</MEAN_MOTION_DOT><MEAN_MOTION_DDOT>0</MEAN_MOTION_DDOT></tleParameters></data></segment></body></omm>
<omm id="CCSDS_OMM_VERS" version="2.0">
<header><CREATION_DATE/><ORIGINATOR/></header><body><segment><metadata><OBJECT_NAME>ORBCOMM FM38</OBJECT_NAME><OBJECT_ID>2008-031A</OBJECT_ID><CENTER_NAME>EARTH</CENTER_NAME><REF_FRAME>TEME</REF_FRAME><TIME_SYSTEM>UTC</TIME_SYSTEM><MEAN_ELEMENT_THEORY>SGP4</MEAN_ELEMENT_THEORY></metadata><data><meanElements><EPOCH>2024-10-20T14:32:52.241280</EPOCH><MEAN_MOTION>14.79146322</MEAN_MOTION><ECCENTRICITY>.0004373</ECCENTRICITY><INCLINATION>48.4418</INCLINATION><RA_OF_ASC_NODE>15.3459</RA_OF_ASC_NODE><ARG_OF_PERICENTER>85.2275</ARG_OF_PERICENTER><MEAN_ANOMALY>274.9139</MEAN_ANOMALY></meanElements><tleParameters><EPHEMERIS_TYPE>0</EPHEMERIS_TYPE><CLASSIFICATION_TYPE>U</CLASSIFICATION_TYPE><NORAD_CAT_ID>33060</NORAD_CAT_ID><ELEMENT_SET_NO>999</ELEMENT_SET_NO><REV_AT_EPOCH>87925</REV_AT_EPOCH><BSTAR>.13116E-2</BSTAR><MEAN_MOTION_DOT>.9633E-4</MEAN_MOTION_DOT><MEAN_MOTION_DDOT>0</MEAN_MOTION_DDOT></tleParameters></data></segment></body></omm>
<omm id="CCSDS_OMM_VERS" version="2.0">
<header><CREATION_DATE/><ORIGINATOR/></header><body><segment><metadata><OBJECT_NAME>ORBCOMM FM41</OBJECT_NAME><OBJECT_ID>2008-031B</OBJECT_ID><CENTER_NAME>EARTH</CENTER_NAME><REF_FRAME>TEME</REF_FRAME><TIME_SYSTEM>UTC</TIME_SYSTEM><MEAN_ELEMENT_THEORY>SGP4</MEAN_ELEMENT_THEORY></metadata><data><meanElements><EPOCH>2024-10-20T15:24:49.566240</EPOCH><MEAN_MOTION>14.78827935</MEAN_MOTION><ECCENTRICITY>.0003609</ECCENTRICITY><INCLINATION>48.4453</INCLINATION><RA_OF_ASC_NODE>22.1940</RA_OF_ASC_NODE><ARG_OF_PERICENTER>66.3544</ARG_OF_PERICENTER><MEAN_ANOMALY>76.0292</MEAN_ANOMALY></meanElements><tleParameters><EPHEMERIS_TYPE>0</EPHEMERIS_TYPE><CLASSIFICATION_TYPE>U</CLASSIFICATION_TYPE><NORAD_CAT_ID>33061</NORAD_CAT_ID><ELEMENT_SET_NO>999</ELEMENT_SET_NO><REV_AT_EPOCH>87875</REV_AT_EPOCH><BSTAR>.13033E-2</BSTAR><MEAN_MOTION_DOT>.9497E-4</MEAN_MOTION_DOT><MEAN_MOTION_DDOT>0</MEAN_MOTION_DDOT></tleParameters></data></segment></body></omm>
<omm id="CCSDS_OMM_VERS" version="2.0">
<header><CREATION_DATE/><ORIGINATOR/></header><body><segment><metadata><OBJECT_NAME>ORBCOMM FM29</OBJECT_NAME><OBJECT_ID>2008-031C</OBJECT_ID><CENTER_NAME>EARTH</CENTER_NAME><REF_FRAME>TEME</REF_FRAME><TIME_SYSTEM>UTC</TIME_SYSTEM><MEAN_ELEMENT_THEORY>SGP4</MEAN_ELEMENT_THEORY></metadata><data><meanElements><EPOCH>2024-10-20T15:13:34.330368</EPOCH><MEAN_MOTION>14.78819885</MEAN_MOTION><ECCENTRICITY>.0005348</ECCENTRICITY><INCLINATION>48.4404</INCLINATION><RA_OF_ASC_NODE>30.2474</RA_OF_ASC_NODE><ARG_OF_PERICENTER>68.4885</ARG_OF_PERICENTER><MEAN_ANOMALY>68.1836</MEAN_ANOMALY></meanElements><tleParameters><EPHEMERIS_TYPE>0</EPHEMERIS_TYPE><CLASSIFICATION_TYPE>U</CLASSIFICATION_TYPE><NORAD_CAT_ID>33062</NORAD_CAT_ID><ELEMENT_SET_NO>999</ELEMENT_SET_NO><REV_AT_EPOCH>87866</REV_AT_EPOCH><BSTAR>.13724E-2</BSTAR><MEAN_MOTION_DOT>.10012E-3</MEAN_MOTION_DOT><MEAN_MOTION_DDOT>0</MEAN_MOTION_DDOT></tleParameters></data></segment></body></omm>
<omm id="CCSDS_OMM_VERS" version="2.0">
<header><CREATION_DATE/><ORIGINATOR/></header><body><segment><metadata><OBJECT_NAME>ORBCOMM FM39</OBJECT_NAME><OBJECT_ID>2008-031D</OBJECT_ID><CENTER_NAME>EARTH</CENTER_NAME><REF_FRAME>TEME</REF_FRAME><TIME_SYSTEM>UTC</TIME_SYSTEM><MEAN_ELEMENT_THEORY>SGP4</MEAN_ELEMENT_THEORY></metadata><data><meanElements><EPOCH>2024-10-20T18:16:15.299616</EPOCH><MEAN_MOTION>14.77631707</MEAN_MOTION><ECCENTRICITY>.0006434</ECCENTRICITY><INCLINATION>48.4414</INCLINATION><RA_OF_ASC_NODE>51.4972</RA_OF_ASC_NODE><ARG_OF_PERICENTER>43.1700</ARG_OF_PERICENTER><MEAN_ANOMALY>316.9718</MEAN_ANOMALY></meanElements><tleParameters><EPHEMERIS_TYPE>0</EPHEMERIS_TYPE><CLASSIFICATION_TYPE>U</CLASSIFICATION_TYPE><NORAD_CAT_ID>33063</NORAD_CAT_ID><ELEMENT_SET_NO>999</ELEMENT_SET_NO><REV_AT_EPOCH>87836</REV_AT_EPOCH><BSTAR>.12716E-2</BSTAR><MEAN_MOTION_DOT>.9E-4</MEAN_MOTION_DOT><MEAN_MOTION_DDOT>0</MEAN_MOTION_DDOT></tleParameters></data></segment></body></omm>

</ndm>
